start=new Date('2022-05-13T00:00:00.000Z').valueOf();
sats=[{"TIME_SYSTEM":"UTC","MEAN_ANOMALY":"86.0008","PERIOD":"95.438","ECCENTRICITY":"0.00022000","CLASSIFICATION_TYPE":"U","BSTAR":"0.00188570000000","TLE_LINE1":"1 50843U 22001AS  22132.91667824  .00029846  00000-0  18857-2 0  9998","OBJECT_TYPE":"PAYLOAD","OBJECT_NAME":"STARLINK-3325","SEMIMAJOR_AXIS":"6917.898","GP_ID":"203394150","ELEMENT_SET_NO":"999","RA_OF_ASC_NODE":"329.4842","SITE":"AFETR","APOAPSIS":"541.284","NORAD_CAT_ID":"50843","ARG_OF_PERICENTER":"38.9036","EPHEMERIS_TYPE":"0","MEAN_MOTION":"15.08834386","OBJECT_ID":"2022-001AS","INCLINATION":"53.2173","COUNTRY_CODE":"US","MEAN_ELEMENT_THEORY":"SGP4","RCS_SIZE":"LARGE","CENTER_NAME":"EARTH","MEAN_MOTION_DOT":"0.00029846","MEAN_MOTION_DDOT":"0.0000000000000","DECAY_DATE":null,"PERIAPSIS":"538.241","REV_AT_EPOCH":"130","EPOCH":"2022-05-12T22:00:00.999936","TLE_LINE2":"2 50843  53.2173 329.4842 0002200  38.9036  86.0008 15.08834386  1300","LAUNCH_DATE":"2022-01-06","REF_FRAME":"TEME","FILE":"3442534"},{"TLE_LINE1":"1 50844U 22001AT  22132.91667824  .00034643  00000-0  21850-2 0  9997","BSTAR":"0.00218500000000","CLASSIFICATION_TYPE":"U","ECCENTRICITY":"0.00020240","PERIOD":"95.439","MEAN_ANOMALY":"263.4083","TIME_SYSTEM":"UTC","SITE":"AFETR","NORAD_CAT_ID":"50844","APOAPSIS":"541.192","RA_OF_ASC_NODE":"329.4735","ELEMENT_SET_NO":"999","SEMIMAJOR_AXIS":"6917.927","GP_ID":"203393900","OBJECT_NAME":"STARLINK-3326","OBJECT_TYPE":"PAYLOAD","DECAY_DATE":null,"PERIAPSIS":"538.392","MEAN_MOTION_DOT":"0.00034643","CENTER_NAME":"EARTH","MEAN_MOTION_DDOT":"0.0000000000000","COUNTRY_CODE":"US","OBJECT_ID":"2022-001AT","INCLINATION":"53.2183","RCS_SIZE":"LARGE","MEAN_ELEMENT_THEORY":"SGP4","EPHEMERIS_TYPE":"0","ARG_OF_PERICENTER":"41.4857","MEAN_MOTION":"15.08824742","REF_FRAME":"TEME","FILE":"3442534","LAUNCH_DATE":"2022-01-06","TLE_LINE2":"2 50844  53.2183 329.4735 0002024  41.4857 263.4083 15.08824742  1306","REV_AT_EPOCH":"130","EPOCH":"2022-05-12T22:00:00.999936"},{"FILE":"3442534","REF_FRAME":"TEME","LAUNCH_DATE":"2022-01-06","TLE_LINE2":"2 50845  53.2183 329.4685 0001608  61.5443   3.3438 15.08826884  1306","EPOCH":"2022-05-12T22:00:00.999936","REV_AT_EPOCH":"130","PERIAPSIS":"538.673","DECAY_DATE":null,"MEAN_MOTION_DDOT":"0.0000000000000","CENTER_NAME":"EARTH","MEAN_MOTION_DOT":"0.00025368","RCS_SIZE":"LARGE","MEAN_ELEMENT_THEORY":"SGP4","COUNTRY_CODE":"US","INCLINATION":"53.2183","OBJECT_ID":"2022-001AU","MEAN_MOTION":"15.08826884","EPHEMERIS_TYPE":"0","ARG_OF_PERICENTER":"61.5443","NORAD_CAT_ID":"50845","APOAPSIS":"540.898","SITE":"AFETR","RA_OF_ASC_NODE":"329.4685","ELEMENT_SET_NO":"999","GP_ID":"203393149","SEMIMAJOR_AXIS":"6917.920","OBJECT_NAME":"STARLINK-3230","OBJECT_TYPE":"PAYLOAD","TLE_LINE1":"1 50845U 22001AU  22132.91667824  .00025368  00000-0  16068-2 0  9997","BSTAR":"0.00160680000000","ECCENTRICITY":"0.00016080","CLASSIFICATION_TYPE":"U","PERIOD":"95.438","MEAN_ANOMALY":"3.3438","TIME_SYSTEM":"UTC"},{"FILE":"3442534","REF_FRAME":"TEME","LAUNCH_DATE":"2022-01-06","TLE_LINE2":"2 50846  53.2181 329.4720 0002127  41.1530 283.7281 15.08830423  1307","EPOCH":"2022-05-12T22:00:00.999936","REV_AT_EPOCH":"130","PERIAPSIS":"538.303","DECAY_DATE":null,"MEAN_MOTION_DDOT":"0.0000000000000","MEAN_MOTION_DOT":"0.00034474","CENTER_NAME":"EARTH","RCS_SIZE":"LARGE","MEAN_ELEMENT_THEORY":"SGP4","COUNTRY_CODE":"US","OBJECT_ID":"2022-001AV","INCLINATION":"53.2181","MEAN_MOTION":"15.08830423","EPHEMERIS_TYPE":"0","ARG_OF_PERICENTER":"41.1530","NORAD_CAT_ID":"50846","APOAPSIS":"541.246","SITE":"AFETR","RA_OF_ASC_NODE":"329.4720","ELEMENT_SET_NO":"999","GP_ID":"203393399","SEMIMAJOR_AXIS":"6917.910","OBJECT_TYPE":"PAYLOAD","OBJECT_NAME":"STARLINK-3308","TLE_LINE1":"1 50846U 22001AV  22132.91667824  .00034474  00000-0  21741-2 0  9990","BSTAR":"0.00217410000000","ECCENTRICITY":"0.00021270","CLASSIFICATION_TYPE":"U","PERIOD":"95.438","TIME_SYSTEM":"UTC","MEAN_ANOMALY":"283.7281"},{"ECCENTRICITY":"0.00022240","CLASSIFICATION_TYPE":"U","PERIOD":"95.441","MEAN_ANOMALY":"108.6702","TIME_SYSTEM":"UTC","TLE_LINE1":"1 50847U 22001AW  22132.91667824  .00024531  00000-0  15561-2 0  9997","BSTAR":"0.00155610000000","GP_ID":"203393650","SEMIMAJOR_AXIS":"6918.029","OBJECT_TYPE":"PAYLOAD","OBJECT_NAME":"STARLINK-3319","SITE":"AFETR","NORAD_CAT_ID":"50847","APOAPSIS":"541.432","RA_OF_ASC_NODE":"329.4730","ELEMENT_SET_NO":"999","COUNTRY_CODE":"US","OBJECT_ID":"2022-001AW","INCLINATION":"53.2148","RCS_SIZE":"LARGE","MEAN_ELEMENT_THEORY":"SGP4","EPHEMERIS_TYPE":"0","ARG_OF_PERICENTER":"76.3095","MEAN_MOTION":"15.08791406","DECAY_DATE":null,"PERIAPSIS":"538.355","CENTER_NAME":"EARTH","MEAN_MOTION_DOT":"0.00024531","MEAN_MOTION_DDOT":"0.0000000000000","TLE_LINE2":"2 50847  53.2148 329.4730 0002224  76.3095 108.6702 15.08791406  1306","REV_AT_EPOCH":"130","EPOCH":"2022-05-12T22:00:00.999936","REF_FRAME":"TEME","FILE":"3442534","LAUNCH_DATE":"2022-01-06"},{"TIME_SYSTEM":"UTC","MEAN_ANOMALY":"299.0665","PERIOD":"95.438","ECCENTRICITY":"0.00016660","CLASSIFICATION_TYPE":"U","BSTAR":"0.00039000000000","TLE_LINE1":"1 50848U 22001AX  22132.91667824  .00005924  00000-0  39000-3 0  9998","OBJECT_NAME":"STARLINK-3315","OBJECT_TYPE":"PAYLOAD","GP_ID":"203394401","SEMIMAJOR_AXIS":"6917.878","ELEMENT_SET_NO":"999","RA_OF_ASC_NODE":"329.4704","SITE":"AFETR","APOAPSIS":"540.896","NORAD_CAT_ID":"50848","ARG_OF_PERICENTER":"45.8220","EPHEMERIS_TYPE":"0","MEAN_MOTION":"15.08840696","OBJECT_ID":"2022-001AX","INCLINATION":"53.2180","COUNTRY_CODE":"US","MEAN_ELEMENT_THEORY":"SGP4","RCS_SIZE":"LARGE","CENTER_NAME":"EARTH","MEAN_MOTION_DOT":"0.00005924","MEAN_MOTION_DDOT":"0.0000000000000","DECAY_DATE":null,"PERIAPSIS":"538.591","REV_AT_EPOCH":"130","EPOCH":"2022-05-12T22:00:00.999936","TLE_LINE2":"2 50848  53.2180 329.4704 0001666  45.8220 299.0665 15.08840696  1303","LAUNCH_DATE":"2022-01-06","REF_FRAME":"TEME","FILE":"3442534"},{"TIME_SYSTEM":"UTC","MEAN_ANOMALY":"247.0561","CLASSIFICATION_TYPE":"U","ECCENTRICITY":"0.00020590","PERIOD":"95.438","BSTAR":"0.00220720000000","TLE_LINE1":"1 50849U 22001AY  22132.91667824  .00035015  00000-0  22072-2 0  9993","OBJECT_NAME":"STARLINK-3311","OBJECT_TYPE":"PAYLOAD","SEMIMAJOR_AXIS":"6917.878","GP_ID":"203392649","RA_OF_ASC_NODE":"329.4732","ELEMENT_SET_NO":"999","SITE":"AFETR","NORAD_CAT_ID":"50849","APOAPSIS":"541.168","EPHEMERIS_TYPE":"0","ARG_OF_PERICENTER":"37.8040","MEAN_MOTION":"15.08840632","COUNTRY_CODE":"US","OBJECT_ID":"2022-001AY","INCLINATION":"53.2180","RCS_SIZE":"LARGE","MEAN_ELEMENT_THEORY":"SGP4","CENTER_NAME":"EARTH","MEAN_MOTION_DOT":"0.00035015","MEAN_MOTION_DDOT":"0.0000000000000","DECAY_DATE":null,"PERIAPSIS":"538.319","REV_AT_EPOCH":"130","EPOCH":"2022-05-12T22:00:00.999936","TLE_LINE2":"2 50849  53.2180 329.4732 0002059  37.8040 247.0561 15.08840632  1301","LAUNCH_DATE":"2022-01-06","REF_FRAME":"TEME","FILE":"3442534"},{"APOAPSIS":"386.524","NORAD_CAT_ID":"50850","SITE":"AFETR","ELEMENT_SET_NO":"999","RA_OF_ASC_NODE":"295.7223","GP_ID":"203392899","SEMIMAJOR_AXIS":"6763.762","OBJECT_TYPE":"PAYLOAD","OBJECT_NAME":"STARLINK-3312","TLE_LINE1":"1 50850U 22001AZ  22132.91667824 -.00712299  00000-0 -91878-2 0  9993","BSTAR":"-0.00918780000000","PERIOD":"92.266","CLASSIFICATION_TYPE":"U","ECCENTRICITY":"0.00013260","TIME_SYSTEM":"UTC","MEAN_ANOMALY":"287.8284","FILE":"3442534","REF_FRAME":"TEME","LAUNCH_DATE":"2022-01-06","TLE_LINE2":"2 50850  53.2174 295.7223 0001326  48.2836 287.8284 15.60703034  1307","EPOCH":"2022-05-12T22:00:00.999936","REV_AT_EPOCH":"130","PERIAPSIS":"384.730","DECAY_DATE":null,"MEAN_MOTION_DDOT":"0.0000000000000","MEAN_MOTION_DOT":"-0.00712299","CENTER_NAME":"EARTH","MEAN_ELEMENT_THEORY":"SGP4","RCS_SIZE":"LARGE","INCLINATION":"53.2174","OBJECT_ID":"2022-001AZ","COUNTRY_CODE":"US","MEAN_MOTION":"15.60703034","ARG_OF_PERICENTER":"48.2836","EPHEMERIS_TYPE":"0"},{"TLE_LINE2":"2 50851  53.2187 329.4707 0002091  36.4846 328.3924 15.08834747  1304","EPOCH":"2022-05-12T22:00:00.999936","REV_AT_EPOCH":"130","FILE":"3442534","REF_FRAME":"TEME","LAUNCH_DATE":"2022-01-06","MEAN_ELEMENT_THEORY":"SGP4","RCS_SIZE":"LARGE","INCLINATION":"53.2187","OBJECT_ID":"2022-001BA","COUNTRY_CODE":"US","MEAN_MOTION":"15.08834747","ARG_OF_PERICENTER":"36.4846","EPHEMERIS_TYPE":"0","PERIAPSIS":"538.315","DECAY_DATE":null,"MEAN_MOTION_DDOT":"0.0000000000000","MEAN_MOTION_DOT":"0.00006032","CENTER_NAME":"EARTH","GP_ID":"203394151","SEMIMAJOR_AXIS":"6917.896","OBJECT_TYPE":"PAYLOAD","OBJECT_NAME":"STARLINK-3314","APOAPSIS":"541.208","NORAD_CAT_ID":"50851","SITE":"AFETR","ELEMENT_SET_NO":"999","RA_OF_ASC_NODE":"329.4707","PERIOD":"95.438","ECCENTRICITY":"0.00020910","CLASSIFICATION_TYPE":"U","TIME_SYSTEM":"UTC","MEAN_ANOMALY":"328.3924","TLE_LINE1":"1 50851U 22001BA  22132.91667824  .00006032  00000-0  39681-3 0  9998","BSTAR":"0.00039681000000"},{"TLE_LINE1":"1 51104U 22005A   22132.91667824 -.00649152  00000-0 -35310-1 0  9995","BSTAR":"-0.03531000000000","PERIOD":"94.969","CLASSIFICATION_TYPE":"U","ECCENTRICITY":"0.00016390","MEAN_ANOMALY":"131.9975","TIME_SYSTEM":"UTC","SITE":"AFETR","APOAPSIS":"518.227","NORAD_CAT_ID":"51104","ELEMENT_SET_NO":"999","RA_OF_ASC_NODE":"79.6470","GP_ID":"203392672","SEMIMAJOR_AXIS":"6895.232","OBJECT_NAME":"STARLINK-3366","OBJECT_TYPE":"PAYLOAD","DECAY_DATE":null,"PERIAPSIS":"515.967","CENTER_NAME":"EARTH","MEAN_MOTION_DOT":"-0.00649152","MEAN_MOTION_DDOT":"0.0000000000000","INCLINATION":"53.2177","OBJECT_ID":"2022-005A","COUNTRY_CODE":"US","MEAN_ELEMENT_THEORY":"SGP4","RCS_SIZE":"LARGE","ARG_OF_PERICENTER":"54.7251","EPHEMERIS_TYPE":"0","MEAN_MOTION":"15.16280122","REF_FRAME":"TEME","FILE":"3442534","LAUNCH_DATE":"2022-01-19","TLE_LINE2":"2 51104  53.2177  79.6470 0001639  54.7251 131.9975 15.16280122  1301","REV_AT_EPOCH":"130","EPOCH":"2022-05-12T22:00:00.999936"}];
